{"type":"FeatureCollection","name":"arroyo-medrano-puntos","features":[{"type":"Feature","properties":{"n":1,"nombre":"Ingreso 3 de Febrero (Yrigoyen y Canale)"},"geometry":{"type":"Point","coordinates":[-58.544706,-34.596311]}},{"type":"Feature","properties":{"n":2,"nombre":"Ingreso 3 de Febrero (Heredia y Azcuenaga)"},"geometry":{"type":"Point","coordinates":[-58.529519,-34.595678]}},{"type":"Feature","properties":{"n":3,"nombre":"Zona Fabril Villa Lynch (Perdriel y Libertador San Martin)"},"geometry":{"type":"Point","coordinates":[-58.532053,-34.580317]}},{"type":"Feature","properties":{"n":4,"nombre":"Cuenco Aliviador (Arturo Illia y Lavalle)"},"geometry":{"type":"Point","coordinates":[-58.515703,-34.567347]}},{"type":"Feature","properties":{"n":5,"nombre":"Aliviador Martelli (Saenz Pena y Boulogne Sur)"},"geometry":{"type":"Point","coordinates":[-58.522275,-34.556381]}}]}