{"type":"FeatureCollection","name":"arroyo-medrano-traza","features":[{"type":"Feature","properties":{"nombre":"Traza Arroyo Medrano","tramo":1},"geometry":{"type":"LineString","coordinates":[[-58.52089,-34.551302],[-58.521269,-34.551315],[-58.526746,-34.5537]]}},{"type":"Feature","properties":{"nombre":"Traza Arroyo Medrano","tramo":2},"geometry":{"type":"LineString","coordinates":[[-58.539757,-34.560954],[-58.539859,-34.561231],[-58.539715,-34.561579],[-58.537741,-34.56481],[-58.534643,-34.568505],[-58.531897,-34.571077]]}},{"type":"Feature","properties":{"nombre":"Traza Arroyo Medrano","tramo":3},"geometry":{"type":"LineString","coordinates":[[-58.535158,-34.582316],[-58.535944,-34.582368],[-58.541972,-34.584357],[-58.548666,-34.585749],[-58.550994,-34.587119],[-58.551656,-34.587762],[-58.553259,-34.589982]]}},{"type":"Feature","properties":{"nombre":"Traza Arroyo Medrano","tramo":4},"geometry":{"type":"LineString","coordinates":[[-58.508022,-34.559849],[-58.513922,-34.564996]]}},{"type":"Feature","properties":{"nombre":"Traza Arroyo Medrano","tramo":5},"geometry":{"type":"LineString","coordinates":[[-58.535104,-34.582308],[-58.532412,-34.580317],[-58.532032,-34.580304]]}},{"type":"Feature","properties":{"nombre":"Traza Arroyo Medrano","tramo":6},"geometry":{"type":"LineString","coordinates":[[-58.535103,-34.582351],[-58.535,-34.583272],[-58.535207,-34.584848],[-58.536013,-34.587493],[-58.537109,-34.589311],[-58.537365,-34.589959],[-58.538388,-34.591439],[-58.540056,-34.594344]]}},{"type":"Feature","properties":{"nombre":"Traza Arroyo Medrano","tramo":7},"geometry":{"type":"LineString","coordinates":[[-58.530417,-34.578648],[-58.530408,-34.579038]]}},{"type":"Feature","properties":{"nombre":"Traza Arroyo Medrano","tramo":8},"geometry":{"type":"LineString","coordinates":[[-58.532006,-34.580278],[-58.530472,-34.578612]]}},{"type":"Feature","properties":{"nombre":"Traza Arroyo Medrano","tramo":9},"geometry":{"type":"LineString","coordinates":[[-58.532005,-34.580321],[-58.5314,-34.580666]]}},{"type":"Feature","properties":{"nombre":"Traza Arroyo Medrano","tramo":10},"geometry":{"type":"LineString","coordinates":[[-58.531528,-34.571783],[-58.532144,-34.572115],[-58.541817,-34.57369],[-58.544405,-34.574338],[-58.54681,-34.574719]]}},{"type":"Feature","properties":{"nombre":"Traza Arroyo Medrano","tramo":11},"geometry":{"type":"LineString","coordinates":[[-58.531501,-34.571757],[-58.531507,-34.571541],[-58.531895,-34.571163]]}},{"type":"Feature","properties":{"nombre":"Traza Arroyo Medrano","tramo":12},"geometry":{"type":"LineString","coordinates":[[-58.531474,-34.571775],[-58.530432,-34.572229],[-58.528274,-34.572886],[-58.527478,-34.573311]]}},{"type":"Feature","properties":{"nombre":"Traza Arroyo Medrano","tramo":13},"geometry":{"type":"LineString","coordinates":[[-58.51133,-34.57486],[-58.511527,-34.574563],[-58.511366,-34.571035],[-58.51171,-34.567952],[-58.51334,-34.56554],[-58.513921,-34.565039]]}},{"type":"Feature","properties":{"nombre":"Traza Arroyo Medrano","tramo":14},"geometry":{"type":"LineString","coordinates":[[-58.511303,-34.574878],[-58.508098,-34.576206],[-58.504961,-34.576978]]}},{"type":"Feature","properties":{"nombre":"Traza Arroyo Medrano","tramo":15},"geometry":{"type":"LineString","coordinates":[[-58.52745,-34.573329],[-58.529207,-34.575877],[-58.529427,-34.576932],[-58.530176,-34.578503]]}},{"type":"Feature","properties":{"nombre":"Traza Arroyo Medrano","tramo":16},"geometry":{"type":"LineString","coordinates":[[-58.528831,-34.583808],[-58.529632,-34.579749],[-58.529825,-34.579582],[-58.529864,-34.579087],[-58.530175,-34.578546]]}},{"type":"Feature","properties":{"nombre":"Traza Arroyo Medrano","tramo":17},"geometry":{"type":"LineString","coordinates":[[-58.513949,-34.565022],[-58.514378,-34.565216],[-58.515228,-34.565996],[-58.515981,-34.56624],[-58.517024,-34.566896],[-58.519742,-34.568956],[-58.522988,-34.570464],[-58.525423,-34.571894],[-58.527424,-34.573303]]}},{"type":"Feature","properties":{"nombre":"Traza Arroyo Medrano","tramo":18},"geometry":{"type":"LineString","coordinates":[[-58.514116,-34.58555],[-58.515998,-34.589727],[-58.516467,-34.593998],[-58.51669,-34.59488]]}},{"type":"Feature","properties":{"nombre":"Traza Arroyo Medrano","tramo":19},"geometry":{"type":"LineString","coordinates":[[-58.529561,-34.595431],[-58.529737,-34.594848],[-58.527983,-34.59217],[-58.527909,-34.591833],[-58.528034,-34.590001],[-58.528383,-34.589009],[-58.528364,-34.588636],[-58.528612,-34.588477],[-58.528482,-34.585955],[-58.528726,-34.584816]]}},{"type":"Feature","properties":{"nombre":"Traza Arroyo Medrano","tramo":20},"geometry":{"type":"LineString","coordinates":[[-58.52956,-34.595475],[-58.530013,-34.595782],[-58.530566,-34.596496],[-58.53233,-34.599894]]}},{"type":"Feature","properties":{"nombre":"Traza Arroyo Medrano","tramo":21},"geometry":{"type":"LineString","coordinates":[[-58.529505,-34.595467],[-58.528988,-34.595542]]}}]}