{"type":"FeatureCollection","name":"botes-emergencia","features":[{"type":"Feature","properties":{"nombre":"Bote de emergencia 1","direccion":"C. 101 9 de Julio 6399-6599, B1655 Villa Coronel José María Zapiola, Provincia de Buenos Aires"},"geometry":{"type":"Point","coordinates":[-58.582047,-34.54833]}},{"type":"Feature","properties":{"nombre":"Bote de emergencia 2","direccion":"Punto de emergencia"},"geometry":{"type":"Point","coordinates":[-58.572487,-34.526373]}},{"type":"Feature","properties":{"nombre":"Bote de emergencia 3","direccion":"Punto de emergencia"},"geometry":{"type":"Point","coordinates":[-58.578039,-34.535978]}}]}