{"type":"FeatureCollection","name":"exenciones-obras","features":[{"type":"Feature","properties":{"n":1,"localidad":"Villa Juan Martín de Pueyrredón","aproximado":true,"calles":["Lavalle (123)","Alvear (100)","Ricardo Balbín (101)"]},"geometry":{"type":"Polygon","coordinates":[[[-58.571154,-34.574027],[-58.567446,-34.574027],[-58.567446,-34.570973],[-58.571154,-34.570973],[-58.571154,-34.574027]]]}},{"type":"Feature","properties":{"n":2,"localidad":"General San Martín (centro)","aproximado":false,"calles":["Lavalle (115)","Mitre (54)","Ricardo Balbín (101)","Perdriel (42)"]},"geometry":{"type":"Polygon","coordinates":[[[-58.54721,-34.584278],[-58.542581,-34.580319],[-58.537287,-34.584682],[-58.54194,-34.58859],[-58.54721,-34.584278]]]}},{"type":"Feature","properties":{"n":3,"localidad":"Villa Piaggio","aproximado":false,"calles":["Iturraspe (101)","Perdriel (42)","Av. Libertador Gral. San Martín (85)","Rodríguez Peña (22)"]},"geometry":{"type":"Polygon","coordinates":[[[-58.536808,-34.584295],[-58.532059,-34.580312],[-58.525831,-34.587244],[-58.530627,-34.590173],[-58.536808,-34.584295]]]}},{"type":"Feature","properties":{"n":4,"localidad":"General San Martín (centro)","aproximado":false,"calles":["Bonifacini (85)","Mitre (54)","Saavedra (77)","Perdriel (42)"]},"geometry":{"type":"Polygon","coordinates":[[[-58.537107,-34.575729],[-58.533931,-34.573062],[-58.528596,-34.577386],[-58.531781,-34.580047],[-58.537107,-34.575729]]]}},{"type":"Feature","properties":{"n":5,"localidad":"Villa Maipú","aproximado":false,"calles":["Saavedra (77)","Matheu (56)","Bernardi (67)","Perdriel (42)"]},"geometry":{"type":"Polygon","coordinates":[[[-58.534456,-34.572639],[-58.531878,-34.569633],[-58.525504,-34.574813],[-58.528596,-34.577386],[-58.534456,-34.572639]]]}},{"type":"Feature","properties":{"n":6,"localidad":"Malaver","aproximado":true,"calles":["Bolivia","Entre Ríos","Catamarca","Cuenca"]},"geometry":{"type":"Polygon","coordinates":[[[-58.551136,-34.557547],[-58.547864,-34.557547],[-58.547864,-34.554853],[-58.551136,-34.554853],[-58.551136,-34.557547]]]}},{"type":"Feature","properties":{"n":7,"localidad":"Villa Cnel. José M. Zapiola","aproximado":false,"calles":["J. M. de Rosas (190)","9 de Julio (101)","Cuba (130)","Ricardo Balbín (101)","Eva Perón (125)"]},"geometry":{"type":"Polygon","coordinates":[[[-58.582404,-34.548025],[-58.572302,-34.556238],[-58.580314,-34.56252],[-58.582535,-34.562478],[-58.586989,-34.558949],[-58.582404,-34.548025]]]}}]}