{"type":"FeatureCollection","name":"tramos-afectados","features":[{"type":"Feature","properties":{"calle":"25 de Mayo","altura":"6082–6200","mes":"Diciembre","volumen":2,"corregido":false,"nros_reclamo":[]},"geometry":{"type":"LineString","coordinates":[[-58.583344,-34.555189],[-58.58407,-34.554411]]}},{"type":"Feature","properties":{"calle":"Alsina","altura":"2484–2494","mes":"Diciembre","volumen":2,"corregido":false,"nros_reclamo":["2025-W -07911"]},"geometry":{"type":"LineString","coordinates":[[-58.567427,-34.535553],[-58.567574,-34.535612]]}},{"type":"Feature","properties":{"calle":"Alsina","altura":"4861–5079","mes":"Diciembre","volumen":3,"corregido":false,"nros_reclamo":["2025-R -68511"]},"geometry":{"type":"LineString","coordinates":[[-58.564376,-34.569216],[-58.565893,-34.571148]]}},{"type":"Feature","properties":{"calle":"Alvear","altura":"2101–2185","mes":"Diciembre","volumen":3,"corregido":false,"nros_reclamo":[]},"geometry":{"type":"LineString","coordinates":[[-58.546502,-34.58361],[-58.547186,-34.582801]]}},{"type":"Feature","properties":{"calle":"Av. Eva Perón","altura":"2502–2885","mes":"Diciembre","volumen":2,"corregido":false,"nros_reclamo":["2025-R -68005","2025-W -07881"]},"geometry":{"type":"LineString","coordinates":[[-58.555342,-34.584136],[-58.559345,-34.580658]]}},{"type":"Feature","properties":{"calle":"Av. Pte. A. Illia","altura":"2400–2417","mes":"Diciembre","volumen":2,"corregido":false,"nros_reclamo":[]},"geometry":{"type":"LineString","coordinates":[[-58.52311,-34.571685],[-58.523519,-34.571637]]}},{"type":"Feature","properties":{"calle":"Belgrano","altura":"3615–3747","mes":"Diciembre","volumen":3,"corregido":false,"nros_reclamo":[]},"geometry":{"type":"LineString","coordinates":[[-58.564774,-34.57512],[-58.565751,-34.574349]]}},{"type":"Feature","properties":{"calle":"Belgrano","altura":"4704–4793","mes":"Diciembre","volumen":2,"corregido":false,"nros_reclamo":[]},"geometry":{"type":"LineString","coordinates":[[-58.544677,-34.584032],[-58.545476,-34.584258]]}},{"type":"Feature","properties":{"calle":"Betinotti","altura":"4800–4864","mes":"Diciembre","volumen":2,"corregido":false,"nros_reclamo":[]},"geometry":{"type":"LineString","coordinates":[[-58.583099,-34.553827],[-58.583557,-34.554118]]}},{"type":"Feature","properties":{"calle":"Campichuelo","altura":"4775–4800","mes":"Diciembre","volumen":2,"corregido":false,"nros_reclamo":[]},"geometry":{"type":"LineString","coordinates":[[-58.581742,-34.554432],[-58.581683,-34.554659]]}},{"type":"Feature","properties":{"calle":"Castelli","altura":"1818–2046","mes":"Diciembre","volumen":5,"corregido":false,"nros_reclamo":["2025-R -68009"]},"geometry":{"type":"LineString","coordinates":[[-58.542798,-34.585418],[-58.545269,-34.583544]]}},{"type":"Feature","properties":{"calle":"Chascomus","altura":"4547–4697","mes":"Diciembre","volumen":2,"corregido":false,"nros_reclamo":[]},"geometry":{"type":"LineString","coordinates":[[-58.588354,-34.545131],[-58.589239,-34.545886]]}},{"type":"Feature","properties":{"calle":"Conesa","altura":"4998–5095","mes":"Diciembre","volumen":3,"corregido":false,"nros_reclamo":["2025-W -07899"]},"geometry":{"type":"LineString","coordinates":[[-58.570798,-34.565977],[-58.571424,-34.566499]]}},{"type":"Feature","properties":{"calle":"Cuba","altura":"5110–5112","mes":"Diciembre","volumen":2,"corregido":false,"nros_reclamo":["2025-W -67555","2025-W -07821"]},"geometry":{"type":"LineString","coordinates":[[-58.578682,-34.561184],[-58.578725,-34.561243]]}},{"type":"Feature","properties":{"calle":"Dra. Alicia Moreau de Justo","altura":"883–989","mes":"Diciembre","volumen":2,"corregido":false,"nros_reclamo":[]},"geometry":{"type":"LineString","coordinates":[[-58.528272,-34.5879],[-58.529062,-34.587278]]}},{"type":"Feature","properties":{"calle":"Ituzaingo","altura":"1834–2186","mes":"Diciembre","volumen":3,"corregido":false,"nros_reclamo":[]},"geometry":{"type":"LineString","coordinates":[[-58.528988,-34.573417],[-58.532563,-34.570478]]}},{"type":"Feature","properties":{"calle":"Juarez","altura":"3252–3369","mes":"Diciembre","volumen":3,"corregido":false,"nros_reclamo":[]},"geometry":{"type":"LineString","coordinates":[[-58.530052,-34.576896],[-58.531182,-34.57757]]}},{"type":"Feature","properties":{"calle":"Lib. Gral. San Martín","altura":"5929–6152","mes":"Diciembre","volumen":3,"corregido":false,"nros_reclamo":[]},"geometry":{"type":"LineString","coordinates":[[-58.582498,-34.556864],[-58.584641,-34.555504]]}},{"type":"Feature","properties":{"calle":"Lincoln","altura":"4198–4345","mes":"Diciembre","volumen":2,"corregido":false,"nros_reclamo":["2025-W -07893"]},"geometry":{"type":"LineString","coordinates":[[-58.538412,-34.582218],[-58.539855,-34.583181]]}},{"type":"Feature","properties":{"calle":"Liniers","altura":"1707–1720","mes":"Diciembre","volumen":2,"corregido":false,"nros_reclamo":[]},"geometry":{"type":"LineString","coordinates":[[-58.536849,-34.582238],[-58.53718,-34.582279]]}},{"type":"Feature","properties":{"calle":"Maipú","altura":"5055–5101","mes":"Diciembre","volumen":2,"corregido":false,"nros_reclamo":[]},"geometry":{"type":"LineString","coordinates":[[-58.581354,-34.558547],[-58.574146,-34.564405]]}},{"type":"Feature","properties":{"calle":"Matheu","altura":"4800–5014","mes":"Diciembre","volumen":2,"corregido":false,"nros_reclamo":[]},"geometry":{"type":"LineString","coordinates":[[-58.547498,-34.582777],[-58.549123,-34.584269]]}},{"type":"Feature","properties":{"calle":"Moreno","altura":"4613–4685","mes":"Diciembre","volumen":3,"corregido":false,"nros_reclamo":[]},"geometry":{"type":"LineString","coordinates":[[-58.54296,-34.584051],[-58.543549,-34.584467]]}},{"type":"Feature","properties":{"calle":"Pueyrredon","altura":"4929–4997","mes":"Diciembre","volumen":2,"corregido":false,"nros_reclamo":[]},"geometry":{"type":"LineString","coordinates":[[-58.54963,-34.582745],[-58.550097,-34.583102]]}},{"type":"Feature","properties":{"calle":"Suipacha","altura":"2209–2233","mes":"Diciembre","volumen":2,"corregido":false,"nros_reclamo":["2025-W -07744"]},"geometry":{"type":"LineString","coordinates":[[-58.54897,-34.583826],[-58.549331,-34.583647]]}},{"type":"Feature","properties":{"calle":"Urquiza","altura":"6000–6190","mes":"Diciembre","volumen":3,"corregido":false,"nros_reclamo":["2025-W -07864","2025-R -67561","2025-R -67489"]},"geometry":{"type":"LineString","coordinates":[[-58.581829,-34.554698],[-58.583133,-34.553622]]}},{"type":"Feature","properties":{"calle":"Alsina","altura":"2400–2573","mes":"Octubre","volumen":4,"corregido":false,"nros_reclamo":["2025-R -56204","2025-R -56205","2025-W -06483"]},"geometry":{"type":"LineString","coordinates":[[-58.566843,-34.534919],[-58.568532,-34.536125]]}},{"type":"Feature","properties":{"calle":"Av. Pte. A. Illia","altura":"1100–1600","mes":"Octubre","volumen":2,"corregido":false,"nros_reclamo":[]},"geometry":{"type":"LineString","coordinates":[[-58.513156,-34.565821],[-58.517017,-34.568284]]}},{"type":"Feature","properties":{"calle":"Av. Pte. A. Illia","altura":"2547–2839","mes":"Octubre","volumen":4,"corregido":false,"nros_reclamo":[]},"geometry":{"type":"LineString","coordinates":[[-58.524696,-34.572297],[-58.527049,-34.57411]]}},{"type":"Feature","properties":{"calle":"Azopardo","altura":"4897–4898","mes":"Octubre","volumen":2,"corregido":false,"nros_reclamo":[]},"geometry":{"type":"LineString","coordinates":[[-58.561765,-34.571477],[-58.561788,-34.571497]]}},{"type":"Feature","properties":{"calle":"Betinotti","altura":"4500–4854","mes":"Octubre","volumen":2,"corregido":false,"nros_reclamo":[]},"geometry":{"type":"LineString","coordinates":[[-58.581174,-34.552135],[-58.583448,-34.554072]]}},{"type":"Feature","properties":{"calle":"Calle 7","altura":"3953–4008","mes":"Octubre","volumen":2,"corregido":false,"nros_reclamo":[]},"geometry":{"type":"LineString","coordinates":[[-58.59339,-34.532853],[-58.59385,-34.533432]]}},{"type":"Feature","properties":{"calle":"Campichuelo","altura":"2500–2900","mes":"Octubre","volumen":2,"corregido":false,"nros_reclamo":[]},"geometry":{"type":"LineString","coordinates":[[-58.566686,-34.542668],[-58.566686,-34.542668]]}},{"type":"Feature","properties":{"calle":"Cuba","altura":"5101–5116","mes":"Octubre","volumen":6,"corregido":false,"nros_reclamo":["2025-W -56786"]},"geometry":{"type":"LineString","coordinates":[[-58.578672,-34.561032],[-58.578758,-34.561273]]}},{"type":"Feature","properties":{"calle":"Dr. Manuel A. Rouco","altura":"1100–1150","mes":"Octubre","volumen":3,"corregido":false,"nros_reclamo":[]},"geometry":{"type":"LineString","coordinates":[[-58.528985,-34.586188],[-58.529547,-34.585994]]}},{"type":"Feature","properties":{"calle":"Gral. Roca","altura":"1767–1812","mes":"Octubre","volumen":2,"corregido":false,"nros_reclamo":[]},"geometry":{"type":"LineString","coordinates":[[-58.538177,-34.582355],[-58.538862,-34.582141]]}},{"type":"Feature","properties":{"calle":"Ibarbourú","altura":"4195–4600","mes":"Octubre","volumen":2,"corregido":false,"nros_reclamo":[]},"geometry":{"type":"LineString","coordinates":[[-58.589484,-34.539543],[-58.592499,-34.542372]]}},{"type":"Feature","properties":{"calle":"Juárez","altura":"3200–3465","mes":"Octubre","volumen":6,"corregido":false,"nros_reclamo":["2025-R -56865","2025-R -56237","2025-R -56384","2025-R -56843","2025-R -56867"]},"geometry":{"type":"LineString","coordinates":[[-58.529714,-34.576479],[-58.532009,-34.578128]]}},{"type":"Feature","properties":{"calle":"Libertad","altura":"5415–5469","mes":"Octubre","volumen":4,"corregido":false,"nros_reclamo":["2025-R -56340","2025-R -56460"]},"geometry":{"type":"LineString","coordinates":[[-58.55866,-34.581881],[-58.559074,-34.582178]]}},{"type":"Feature","properties":{"calle":"Maipú","altura":"3800–3875","mes":"Octubre","volumen":2,"corregido":false,"nros_reclamo":[]},"geometry":{"type":"LineString","coordinates":[[-58.572942,-34.55089],[-58.573561,-34.551222]]}},{"type":"Feature","properties":{"calle":"Moreno","altura":"4500–4700","mes":"Octubre","volumen":3,"corregido":false,"nros_reclamo":["2025-R -56203"]},"geometry":{"type":"LineString","coordinates":[[-58.54191,-34.58337],[-58.543335,-34.584701]]}},{"type":"Feature","properties":{"calle":"Patagonia","altura":"7418–7800","mes":"Octubre","volumen":2,"corregido":false,"nros_reclamo":[]},"geometry":{"type":"LineString","coordinates":[[-58.590446,-34.545205],[-58.593261,-34.542925]]}},{"type":"Feature","properties":{"calle":"Perdriel","altura":"1100–1444","mes":"Octubre","volumen":3,"corregido":false,"nros_reclamo":["2025-R -56245","2025-R -56260"]},"geometry":{"type":"LineString","coordinates":[[-58.512277,-34.56676],[-58.515219,-34.56852]]}},{"type":"Feature","properties":{"calle":"Riobamba","altura":"2200–2228","mes":"Octubre","volumen":2,"corregido":false,"nros_reclamo":["2025-R -56781"]},"geometry":{"type":"LineString","coordinates":[[-58.534876,-34.572425],[-58.535465,-34.571978]]}},{"type":"Feature","properties":{"calle":"Rodríguez Peña","altura":"4011–4031","mes":"Octubre","volumen":2,"corregido":false,"nros_reclamo":[]},"geometry":{"type":"LineString","coordinates":[[-58.528043,-34.588427],[-58.528314,-34.588464]]}},{"type":"Feature","properties":{"calle":"S/N (calle sin nombre catastral, cód. 13)","altura":"3414–3536","mes":"Octubre","volumen":3,"corregido":true,"nros_reclamo":[]},"geometry":{"type":"LineString","coordinates":[[-58.53183,-34.543949],[-58.532292,-34.544764]]}},{"type":"Feature","properties":{"calle":"Sarmiento","altura":"1604–1700","mes":"Octubre","volumen":5,"corregido":true,"nros_reclamo":["2025-R -56379"]},"geometry":{"type":"LineString","coordinates":[[-58.530516,-34.578676],[-58.530629,-34.577782]]}},{"type":"Feature","properties":{"calle":"Urquiza","altura":"6100–6151","mes":"Octubre","volumen":3,"corregido":false,"nros_reclamo":[]},"geometry":{"type":"LineString","coordinates":[[-58.582505,-34.554148],[-58.582618,-34.553744]]}},{"type":"Feature","properties":{"calle":"Chaco","altura":"6721–6750","mes":"Diciembre","volumen":2,"corregido":false,"nros_reclamo":["2026-R -01192","2026-R -02350"]},"geometry":{"type":"LineString","coordinates":[[-58.5856972,-34.5477174],[-58.5846661,-34.5483451]]}},{"type":"Feature","properties":{"calle":"Iguazu","altura":"4500–4546","mes":"Diciembre","volumen":3,"corregido":false,"nros_reclamo":["2026-R -01151","2026-R -01943","2026-R -02355"]},"geometry":{"type":"LineString","coordinates":[[-58.5860758,-34.547008],[-58.5857455,-34.5467343]]}},{"type":"Feature","properties":{"calle":"Los Eucaliptus","altura":"6454–6554","mes":"Diciembre","volumen":2,"corregido":false,"nros_reclamo":["2025-R -67888","2025-R -67905"]},"geometry":{"type":"LineString","coordinates":[[-58.5859547,-34.5510769],[-58.5859877,-34.5504244]]}},{"type":"Feature","properties":{"calle":"Ayacucho","altura":"2100–2217","mes":"Diciembre","volumen":3,"corregido":false,"nros_reclamo":["2026-R -02290","2025-R -65866","2026-R -06186"]},"geometry":{"type":"LineString","coordinates":[[-58.5348182,-34.5737864],[-58.5357881,-34.5725115]]}},{"type":"Feature","properties":{"calle":"Chaco","altura":"4238–4238","mes":"Diciembre","volumen":2,"corregido":false,"nros_reclamo":["2025-R -68131","2026-R -01396"]},"geometry":{"type":"LineString","coordinates":[[-58.5449931,-34.5486931],[-58.5449931,-34.5486931]]}},{"type":"Feature","properties":{"calle":"Edison","altura":"7000–7000","mes":"Diciembre","volumen":2,"corregido":false,"nros_reclamo":["2025-R -67452","2026-R -01904"]},"geometry":{"type":"LineString","coordinates":[[-58.5935258,-34.5635727],[-58.5935258,-34.5635727]]}},{"type":"Feature","properties":{"calle":"Sarandi","altura":"5101–5357","mes":"Diciembre","volumen":2,"corregido":false,"nros_reclamo":["2025-R -68107","2025-W -07771"]},"geometry":{"type":"LineString","coordinates":[[-58.5828177,-34.561074],[-58.5826959,-34.5610403]]}},{"type":"Feature","properties":{"calle":"Junin","altura":"3465–3465","mes":"Diciembre","volumen":2,"corregido":false,"nros_reclamo":["2025-R -68448","2026-R -05124"]},"geometry":{"type":"LineString","coordinates":[[-58.5693264,-34.5491229],[-58.5693264,-34.5491229]]}},{"type":"Feature","properties":{"calle":"Quintana","altura":"7769–7769","mes":"Diciembre","volumen":2,"corregido":false,"nros_reclamo":["2025-R -67522","2026-R -01226"]},"geometry":{"type":"LineString","coordinates":[[-58.5689224,-34.5210515],[-58.5689224,-34.5210515]]}},{"type":"Feature","properties":{"calle":"9 de Julio","altura":"7725–7725","mes":"Diciembre","volumen":2,"corregido":false,"nros_reclamo":["2025-R -68141","2026-R -01696"]},"geometry":{"type":"LineString","coordinates":[[-58.5895369,-34.5420822],[-58.5895369,-34.5420822]]}},{"type":"Feature","properties":{"calle":"Republica","altura":"5940–5971","mes":"Diciembre","volumen":2,"corregido":false,"nros_reclamo":["2025-R -68367","2026-R -03228"]},"geometry":{"type":"LineString","coordinates":[[-58.560642,-34.5388683],[-58.5605564,-34.5384813]]}},{"type":"Feature","properties":{"calle":"Esmeralda","altura":"5607–5613","mes":"Diciembre","volumen":2,"corregido":false,"nros_reclamo":["2026-R -02944","2025-R -68381"]},"geometry":{"type":"LineString","coordinates":[[-58.5622371,-34.5455115],[-58.562117,-34.5456071]]}},{"type":"Feature","properties":{"calle":"Dona Victoria Pueyrredon de Pueyrredon","altura":"4500–5094","mes":"Diciembre","volumen":4,"corregido":false,"nros_reclamo":["2026-R -01196","2026-R -01483","2026-R -01647","2026-R -02037"]},"geometry":{"type":"LineString","coordinates":[[-58.5765319,-34.5516217],[-58.5765319,-34.5516217]]}},{"type":"Feature","properties":{"calle":"Heredia","altura":"1000–1487","mes":"Diciembre","volumen":2,"corregido":false,"nros_reclamo":["2026-R -01217","2026-W -00512"]},"geometry":{"type":"LineString","coordinates":[[-58.5332611,-34.5898142],[-58.5332611,-34.5898142]]}},{"type":"Feature","properties":{"calle":"Chivilcoy","altura":"7400–7440","mes":"Diciembre","volumen":2,"corregido":false,"nros_reclamo":["2026-R -04299","2026-R -04592"]},"geometry":{"type":"LineString","coordinates":[[-58.5681447,-34.5243029],[-58.567283,-34.5249631]]}},{"type":"Feature","properties":{"calle":"E. Marengo","altura":"3011–3092","mes":"Diciembre","volumen":2,"corregido":false,"nros_reclamo":["2026-R -04571","2026-R -02367"]},"geometry":{"type":"LineString","coordinates":[[-58.5401611,-34.5616891],[-58.5401611,-34.5616891]]}},{"type":"Feature","properties":{"calle":"26 de Julio de 1890","altura":"4862–4862","mes":"Diciembre","volumen":2,"corregido":false,"nros_reclamo":["2025-R -67475","2025-R -67476"]},"geometry":{"type":"LineString","coordinates":[[-58.5676368,-34.561337],[-58.5676368,-34.561337]]}},{"type":"Feature","properties":{"calle":"Alte. Brown","altura":"4300–4300","mes":"Diciembre","volumen":2,"corregido":false,"nros_reclamo":["2025-R -67466","2025-R -67465"]},"geometry":{"type":"LineString","coordinates":[[-58.5679754,-34.5610075],[-58.5679754,-34.5610075]]}},{"type":"Feature","properties":{"calle":"Calle 7","altura":"4008–4008","mes":"Diciembre","volumen":2,"corregido":false,"nros_reclamo":["2026-R -01305","2026-R -04577"]},"geometry":{"type":"LineString","coordinates":[[-58.5938496,-34.5334321],[-58.5938496,-34.5334321]]}},{"type":"Feature","properties":{"calle":"San Jose de Flores","altura":"5800–5800","mes":"Diciembre","volumen":3,"corregido":false,"nros_reclamo":["2026-R -03321","2026-R -03338","2026-R -04444"]},"geometry":{"type":"LineString","coordinates":[[-58.5729087,-34.5510173],[-58.5729087,-34.5510173]]}},{"type":"Feature","properties":{"calle":"Castro","altura":"1716–1716","mes":"Diciembre","volumen":2,"corregido":false,"nros_reclamo":["2026-W -00383","2026-W -06368"]},"geometry":{"type":"LineString","coordinates":[[-58.5488452,-34.5903197],[-58.5488452,-34.5903197]]}},{"type":"Feature","properties":{"calle":"Velez Sarfield","altura":"3800–3940","mes":"Octubre","volumen":3,"corregido":false,"nros_reclamo":["2025-R -56809","2025-R -56233","2025-R -56359"]},"geometry":{"type":"LineString","coordinates":[[-58.5291167,-34.5865804],[-58.5282665,-34.5854801]]}},{"type":"Feature","properties":{"calle":"Reconquista","altura":"4510–4547","mes":"Octubre","volumen":2,"corregido":false,"nros_reclamo":["2025-R -61271","2025-R -60846"]},"geometry":{"type":"LineString","coordinates":[[-58.5791229,-34.5544113],[-58.5786472,-34.5543217]]}},{"type":"Feature","properties":{"calle":"Av. Eva Peron","altura":"5600–5647","mes":"Octubre","volumen":2,"corregido":false,"nros_reclamo":["2025-R -57322","2025-R -56473"]},"geometry":{"type":"LineString","coordinates":[[-58.5827706,-34.5622991],[-58.5827166,-34.5620235]]}},{"type":"Feature","properties":{"calle":"Conscripto Bernardi","altura":"1904–2000","mes":"Octubre","volumen":2,"corregido":false,"nros_reclamo":["2025-R -60287","2025-R -57761"]},"geometry":{"type":"LineString","coordinates":[[-58.5297884,-34.5713602],[-58.5289221,-34.5721775]]}},{"type":"Feature","properties":{"calle":"Alsina","altura":"4930–4936","mes":"Octubre","volumen":3,"corregido":false,"nros_reclamo":["2025-R -61063","2025-R -61353","2025-R -61025"]},"geometry":{"type":"LineString","coordinates":[[-58.5644479,-34.5698048],[-58.5644214,-34.5697961]]}},{"type":"Feature","properties":{"calle":"Saavedra","altura":"1500–1500","mes":"Octubre","volumen":2,"corregido":false,"nros_reclamo":["2025-R -56247","2025-R -56262"]},"geometry":{"type":"LineString","coordinates":[[-58.5276409,-34.5781444],[-58.5276409,-34.5781444]]}},{"type":"Feature","properties":{"calle":"S/n","altura":"3414–3536","mes":"Octubre","volumen":2,"corregido":false,"nros_reclamo":["2025-R -58509","2025-R -57253"]},"geometry":{"type":"LineString","coordinates":[[-58.5443017,-34.5659429],[-58.5443017,-34.5659429]]}},{"type":"Feature","properties":{"calle":"San Lorenzo","altura":"2261–2261","mes":"Octubre","volumen":2,"corregido":false,"nros_reclamo":["2025-R -57638","2025-R -59396"]},"geometry":{"type":"LineString","coordinates":[[-58.5402977,-34.5756285],[-58.5402977,-34.5756285]]}}]}