{"type":"FeatureCollection","name":"zona-anegamientos-com","features":[{"type":"Feature","properties":{"n":1,"direccion":"Malvinas y Calle 2","barrio":"Barrio Independencia","riesgo":"MUY ALTO"},"geometry":{"type":"Point","coordinates":[-58.587448,-34.531927]}},{"type":"Feature","properties":{"n":2,"direccion":"Malvinas Argentinas y José Ingenieros","barrio":"Barrio Independencia","riesgo":"MUY ALTO"},"geometry":{"type":"Point","coordinates":[-58.583573,-34.533814]}},{"type":"Feature","properties":{"n":3,"direccion":"R. Obligado y Mitre","barrio":"Villa Hidalgo","riesgo":"ALTO"},"geometry":{"type":"Point","coordinates":[-58.583521,-34.510715]}},{"type":"Feature","properties":{"n":4,"direccion":"Dorrego y Santa Rosalía","barrio":"Malaver","riesgo":"MEDIO"},"geometry":{"type":"Point","coordinates":[-58.53153,-34.550611]}},{"type":"Feature","properties":{"n":5,"direccion":"Campos y 4 de Febrero","barrio":"Villa Concepción","riesgo":"ALTO"},"geometry":{"type":"Point","coordinates":[-58.529026,-34.549073]}},{"type":"Feature","properties":{"n":6,"direccion":"Las Rosas y Ombú","barrio":"Barrio El Libertador","riesgo":"ALTO"},"geometry":{"type":"Point","coordinates":[-58.594541,-34.548712]}},{"type":"Feature","properties":{"n":7,"direccion":"Artigas y Padre Mujica","barrio":"Villa Lanzone","riesgo":"MUY ALTO"},"geometry":{"type":"Point","coordinates":[-58.590474,-34.53198]}},{"type":"Feature","properties":{"n":8,"direccion":"Campos y Salta","barrio":"Villa Concepción","riesgo":"MEDIO"},"geometry":{"type":"Point","coordinates":[-58.528098,-34.547463]}},{"type":"Feature","properties":{"n":9,"direccion":"Ruta 8 y Avenida Central","barrio":"Villa 18","riesgo":"MUY ALTO"},"geometry":{"type":"Point","coordinates":[-58.576385,-34.563368]}},{"type":"Feature","properties":{"n":10,"direccion":"Italia y Andrade","barrio":"Villa Hidalgo","riesgo":"ALTO"},"geometry":{"type":"Point","coordinates":[-58.584315,-34.514144]}},{"type":"Feature","properties":{"n":11,"direccion":"Túnel de Pueyrredón y Dr. Aleu","barrio":"Villa Ballester","riesgo":"MUY ALTO"},"geometry":{"type":"Point","coordinates":[-58.554383,-34.551992]}},{"type":"Feature","properties":{"n":12,"direccion":"Zona próxima a Av. de los Constituyentes e Ilia","barrio":"Villa Maipú","riesgo":"ALTO"},"geometry":{"type":"Point","coordinates":[-58.513139,-34.565855]}},{"type":"Feature","properties":{"n":13,"direccion":"Túnel de solis","barrio":"Jose Leon Suarez","riesgo":"MEDIO"},"geometry":{"type":"Point","coordinates":[-58.571901,-34.538234]}},{"type":"Feature","properties":{"n":14,"direccion":"Túnel de Intendente Casares","barrio":"Malaver","riesgo":"MEDIO"},"geometry":{"type":"Point","coordinates":[-58.545034,-34.559717]}},{"type":"Feature","properties":{"n":15,"direccion":"Túnel de Malaver (Intendente Alvear y Dr. Aleu)","barrio":"Malaver","riesgo":"ALTO"},"geometry":{"type":"Point","coordinates":[-58.543924,-34.560525]}},{"type":"Feature","properties":{"n":16,"direccion":"Zona próxima al paso a nivel de Lincoln y Ambrini","barrio":"Villa Maipú","riesgo":"ALTO"},"geometry":{"type":"Point","coordinates":[-58.529801,-34.574821]}},{"type":"Feature","properties":{"n":17,"direccion":"Perdriel y Saavedra","barrio":"San Martin","riesgo":"ALTO"},"geometry":{"type":"Point","coordinates":[-58.528621,-34.577393]}},{"type":"Feature","properties":{"n":18,"direccion":"Zona del Cementerio de San Martín","barrio":"San Martin","riesgo":"ALTO"},"geometry":{"type":"Point","coordinates":[-58.551983,-34.583013]}},{"type":"Feature","properties":{"n":19,"direccion":"Arroyo sobre la calle Güemes","barrio":"Costa Esperanza","riesgo":"MUY ALTO"},"geometry":{"type":"Point","coordinates":[-58.603991,-34.553497]}},{"type":"Feature","properties":{"n":20,"direccion":"Arroyo José Ingenieros (sector de la calle 1.º de Agosto de 1806)","barrio":"Barrio El Libertador","riesgo":"MUY ALTO"},"geometry":{"type":"Point","coordinates":[-58.590089,-34.546464]}},{"type":"Feature","properties":{"n":21,"direccion":"Rio negro y Libertad","barrio":"Chilavert","riesgo":"MEDIO"},"geometry":{"type":"Point","coordinates":[-58.563833,-34.534465]}},{"type":"Feature","properties":{"n":22,"direccion":"Santa Adelina y Dorrego","barrio":"Malaver","riesgo":"ALTO"},"geometry":{"type":"Point","coordinates":[-58.539299,-34.546992]}},{"type":"Feature","properties":{"n":23,"direccion":"independencia y Uriburu","barrio":"Villa Concepción","riesgo":"ALTO"},"geometry":{"type":"Point","coordinates":[-58.528764,-34.545229]}},{"type":"Feature","properties":{"n":24,"direccion":"Artigas y Calle 3","barrio":"Barrio Independencia","riesgo":"MUY ALTO"},"geometry":{"type":"Point","coordinates":[-58.589862,-34.532502]}},{"type":"Feature","properties":{"n":25,"direccion":"Güemes y Madero","barrio":"Tropezon","riesgo":"ALTO"},"geometry":{"type":"Point","coordinates":[-58.555448,-34.591343]}},{"type":"Feature","properties":{"n":26,"direccion":"Alvear y Alcorta","barrio":"Villa Ballester","riesgo":"MEDIO"},"geometry":{"type":"Point","coordinates":[-58.542648,-34.53994]}},{"type":"Feature","properties":{"n":27,"direccion":"4 de febrero y L. M. Drago (Entre Ríos)","barrio":"Villa Concepción","riesgo":"ALTO"},"geometry":{"type":"Point","coordinates":[-58.536843,-34.543181]}},{"type":"Feature","properties":{"n":28,"direccion":"2da Rivadavia y José C. Paz","barrio":"Villa Libertad","riesgo":"ALTO"},"geometry":{"type":"Point","coordinates":[-58.556843,-34.581791]}},{"type":"Feature","properties":{"n":29,"direccion":"Eva Perón y Magaldi","barrio":"Villa Libertad","riesgo":"ALTO"},"geometry":{"type":"Point","coordinates":[-58.559083,-34.58116]}},{"type":"Feature","properties":{"n":30,"direccion":"Santa Brigida y Palacios","barrio":"Barrio Independencia","riesgo":"MUY ALTO"},"geometry":{"type":"Point","coordinates":[-58.584443,-34.530859]}},{"type":"Feature","properties":{"n":31,"direccion":"Av. Márquez y Berutti","barrio":"Barrio El Libertador","riesgo":"MEDIO"},"geometry":{"type":"Point","coordinates":[-58.586364,-34.557532]}},{"type":"Feature","properties":{"n":32,"direccion":"O`Donell y Bolivia","barrio":"Villa Ballester","riesgo":"ALTO"},"geometry":{"type":"Point","coordinates":[-58.551728,-34.55461]}},{"type":"Feature","properties":{"n":33,"direccion":"Córdoba y Entre Ríos","barrio":"Villa Ballester","riesgo":"ALTO"},"geometry":{"type":"Point","coordinates":[-58.547812,-34.554659]}},{"type":"Feature","properties":{"n":34,"direccion":"Las Petunias y Las Calas","barrio":"Costa de lago/ 8 de Mayo","riesgo":"MUY ALTO"},"geometry":{"type":"Point","coordinates":[-58.598411,-34.547755]}},{"type":"Feature","properties":{"n":35,"direccion":"Libertador San Martín y Betinotti","barrio":"Barrio Sarmiento","riesgo":"MEDIO"},"geometry":{"type":"Point","coordinates":[-58.585042,-34.555244]}},{"type":"Feature","properties":{"n":36,"direccion":"Libertad y Fray L. Beltran","barrio":"Villa La Carcova","riesgo":"ALTO"},"geometry":{"type":"Point","coordinates":[-58.577079,-34.523794]}},{"type":"Feature","properties":{"n":37,"direccion":"Vicente López y 26 de Julio","barrio":"9 de Julio","riesgo":"MUY ALTO"},"geometry":{"type":"Point","coordinates":[-58.566815,-34.561833]}},{"type":"Feature","properties":{"n":38,"direccion":"Mitre y Obligado","barrio":"Villa Maipú","riesgo":"MEDIO"},"geometry":{"type":"Point","coordinates":[-58.518612,-34.562435]}},{"type":"Feature","properties":{"n":39,"direccion":"Patagonia y Storni","barrio":"Barrio El Libertador","riesgo":"MUY ALTO"},"geometry":{"type":"Point","coordinates":[-58.591737,-34.543908]}},{"type":"Feature","properties":{"n":40,"direccion":"Adelina Hue y Congreso","barrio":"San Andres","riesgo":"ALTO"},"geometry":{"type":"Point","coordinates":[-58.543999,-34.56396]}},{"type":"Feature","properties":{"n":41,"direccion":"Agustín Álvarez y Mercedes","barrio":"Villa Concepción","riesgo":"ALTO"},"geometry":{"type":"Point","coordinates":[-58.533502,-34.548138]}},{"type":"Feature","properties":{"n":42,"direccion":"Eva Perón y Diagonal 166","barrio":"Costa Esperanza","riesgo":"ALTO"},"geometry":{"type":"Point","coordinates":[-58.593201,-34.554043]}},{"type":"Feature","properties":{"n":43,"direccion":"El Libertador y El Jazmín","barrio":"Barrio El Libertador","riesgo":"ALTO"},"geometry":{"type":"Point","coordinates":[-58.588118,-34.551714]}},{"type":"Feature","properties":{"n":44,"direccion":"Diego Pombo y América","barrio":"San Andres","riesgo":"ALTO"},"geometry":{"type":"Point","coordinates":[-58.541892,-34.563934]}},{"type":"Feature","properties":{"n":45,"direccion":"Azopardo y Rodríguez Peña","barrio":"Villa Pueyredon","riesgo":"ALTO"},"geometry":{"type":"Point","coordinates":[-58.561069,-34.570865]}},{"type":"Feature","properties":{"n":46,"direccion":"José C. Paz y Bolivia","barrio":"San Andres","riesgo":"ALTO"},"geometry":{"type":"Point","coordinates":[-58.538783,-34.566583]}},{"type":"Feature","properties":{"n":47,"direccion":"Combet y Miguel Angel","barrio":"Jose Leon Suarez","riesgo":"ALTO"},"geometry":{"type":"Point","coordinates":[-58.579522,-34.520541]}},{"type":"Feature","properties":{"n":48,"direccion":"Alicia M. De Justo y Republica de Israel","barrio":"Villa Lynch","riesgo":"ALTO"},"geometry":{"type":"Point","coordinates":[-58.528609,-34.58777]}},{"type":"Feature","properties":{"n":49,"direccion":"Túnel de Sarratea","barrio":"Villa Hidalgo","riesgo":"MEDIO"},"geometry":{"type":"Point","coordinates":[-58.581105,-34.506769]}},{"type":"Feature","properties":{"n":50,"direccion":"Calle 4 y Diagonal B","barrio":"Barrio Independencia","riesgo":"MUY ALTO"},"geometry":{"type":"Point","coordinates":[-58.58809,-34.53009]}},{"type":"Feature","properties":{"n":51,"direccion":"Eva Perón y Pte. Perón","barrio":"Villa Libertad","riesgo":"ALTO"},"geometry":{"type":"Point","coordinates":[-58.556468,-34.583257]}},{"type":"Feature","properties":{"n":52,"direccion":"Pueyrredón y Cochabamba","barrio":"San Martin","riesgo":"ALTO"},"geometry":{"type":"Point","coordinates":[-58.537648,-34.572709]}},{"type":"Feature","properties":{"n":53,"direccion":"Av. 25 de mayo y Catalina de Boyle","barrio":"Villa Lynch","riesgo":"ALTO"},"geometry":{"type":"Point","coordinates":[-58.52231,-34.581704]}},{"type":"Feature","properties":{"n":54,"direccion":"Perdriel y Libertador San Martín","barrio":"San Martin","riesgo":"ALTO"},"geometry":{"type":"Point","coordinates":[-58.532084,-34.580321]}},{"type":"Feature","properties":{"n":55,"direccion":"Sarratea y Malabia","barrio":"Jose Leon Suarez","riesgo":"MEDIO"},"geometry":{"type":"Point","coordinates":[-58.575665,-34.511481]}},{"type":"Feature","properties":{"n":56,"direccion":"Yrigoyen y Heredia","barrio":"Villa Lynch","riesgo":"ALTO"},"geometry":{"type":"Point","coordinates":[-58.536975,-34.586242]}},{"type":"Feature","properties":{"n":57,"direccion":"Libertador y Los Pinares","barrio":"Barrio El Libertador","riesgo":"ALTO"},"geometry":{"type":"Point","coordinates":[-58.59476,-34.546702]}},{"type":"Feature","properties":{"n":58,"direccion":"Rodríguez Peña y Victorino de la plaza","barrio":"Villa Lynch","riesgo":"ALTO"},"geometry":{"type":"Point","coordinates":[-58.528682,-34.588975]}},{"type":"Feature","properties":{"n":59,"direccion":"Rivadavia y Cerrito","barrio":"San Martin","riesgo":"ALTO"},"geometry":{"type":"Point","coordinates":[-58.539463,-34.572505]}},{"type":"Feature","properties":{"n":60,"direccion":"Chaco y Entre Ríos","barrio":"Malaver","riesgo":"ALTO"},"geometry":{"type":"Point","coordinates":[-58.543135,-34.549878]}},{"type":"Feature","properties":{"n":61,"direccion":"Sadi Carnot y Republica del Líbano","barrio":"Villa Lynch","riesgo":"ALTO"},"geometry":{"type":"Point","coordinates":[-58.528649,-34.593902]}},{"type":"Feature","properties":{"n":62,"direccion":"Ayacucho y Mathéu","barrio":"San Martin","riesgo":"ALTO"},"geometry":{"type":"Point","coordinates":[-58.535794,-34.572909]}},{"type":"Feature","properties":{"n":63,"direccion":"Ruta 8 y Libertad","barrio":"San Martin","riesgo":"ALTO"},"geometry":{"type":"Point","coordinates":[-58.549868,-34.574241]}},{"type":"Feature","properties":{"n":64,"direccion":"Carranza y Godoy","barrio":"Villa Lynch","riesgo":"ALTO"},"geometry":{"type":"Point","coordinates":[-58.539751,-34.591119]}},{"type":"Feature","properties":{"n":65,"direccion":"Las Heras y Mathéu","barrio":"Villa Maipú","riesgo":"ALTO"},"geometry":{"type":"Point","coordinates":[-58.533389,-34.570936]}},{"type":"Feature","properties":{"n":66,"direccion":"Maipú y las Heras","barrio":"Villa Maipú","riesgo":"ALTO"},"geometry":{"type":"Point","coordinates":[-58.530678,-34.573157]}},{"type":"Feature","properties":{"n":67,"direccion":"Artigas y Calle 2","barrio":"Villa Lanzone","riesgo":"MUY ALTO"},"geometry":{"type":"Point","coordinates":[-58.589099,-34.53313]}},{"type":"Feature","properties":{"n":68,"direccion":"Comedor Itati Calle Eva Duarte","barrio":"Ciudad de Dios","riesgo":"ALTO"},"geometry":{"type":"Point","coordinates":[-58.58292,-34.52839]}},{"type":"Feature","properties":{"n":69,"direccion":"Calle 2 y Calle B","barrio":"Villa Lanzone","riesgo":"MUY ALTO"},"geometry":{"type":"Point","coordinates":[-58.589257,-34.536871]}},{"type":"Feature","properties":{"n":70,"direccion":"Andrade y Camino del Borde","barrio":"Villa La Carcova","riesgo":"ALTO"},"geometry":{"type":"Point","coordinates":[-58.587923,-34.51686]}},{"type":"Feature","properties":{"n":71,"direccion":"Agustin Alvarez y Bahia Blanca","barrio":"Villa Las Ranas","riesgo":"ALTO"},"geometry":{"type":"Point","coordinates":[-58.538096,-34.551318]}},{"type":"Feature","properties":{"n":72,"direccion":"Av. De Los Constituyentes y Morris","barrio":"Entrada Hospital Belgrano","riesgo":"ALTO"},"geometry":{"type":"Point","coordinates":[-58.524687,-34.550305]}},{"type":"Feature","properties":{"n":73,"direccion":"Ecuador y Colombia","barrio":"Loyola","riesgo":"ALTO"},"geometry":{"type":"Point","coordinates":[-58.527421,-34.556021]}},{"type":"Feature","properties":{"n":74,"direccion":"Intendete Alvear y Riobamba","barrio":"Malaver","riesgo":"ALTO"},"geometry":{"type":"Point","coordinates":[-58.546684,-34.562827]}},{"type":"Feature","properties":{"n":75,"direccion":"Paso Bajo Nivel de Juarez","barrio":"San Martin","riesgo":"MEDIO"},"geometry":{"type":"Point","coordinates":[-58.529119,-34.575848]}}]}