{"type":"FeatureCollection","name":"zonas-operativas-dibujadas","features":[{"type":"Feature","properties":{"id":42,"kind":"zona","color_key":"obras","label":null},"geometry":{"type":"Polygon","coordinates":[[[-58.58258843421937,-34.5624408984827],[-58.58710527420045,-34.559030407802645],[-58.58253479003907,-34.54797627626472],[-58.57227802276612,-34.55628247550767],[-58.58225584030152,-34.562803144458435],[-58.587126731872566,-34.559039243451394],[-58.58258843421937,-34.5624408984827]]]}},{"type":"Feature","properties":{"id":45,"kind":"zona","color_key":"obras","label":null},"geometry":{"type":"Polygon","coordinates":[[[-58.537280559539795,-34.584641010662736],[-58.54262351989747,-34.58031276325201],[-58.54724764823914,-34.584270026860004],[-58.541915416717536,-34.58859806817561],[-58.53726983070374,-34.584641010662736],[-58.537280559539795,-34.584641010662736]]]}},{"type":"Feature","properties":{"id":46,"kind":"zona","color_key":"obras","label":null},"geometry":{"type":"Polygon","coordinates":[[[-58.5368835926056,-34.584278859826945],[-58.53207707405091,-34.580330430026116],[-58.52580070495606,-34.587264348861375],[-58.53062868118287,-34.590187904289024],[-58.53228092193604,-34.588297762382886],[-58.53434085845948,-34.58644290843253],[-58.5368299484253,-34.584305358722105],[-58.5368835926056,-34.584278859826945]]]}},{"type":"Feature","properties":{"id":47,"kind":"zona","color_key":"obras","label":null},"geometry":{"type":"Polygon","coordinates":[[[-58.53175520896912,-34.58000359409737],[-58.528558015823364,-34.577371193001234],[-58.533933162689216,-34.57302489868793],[-58.53710889816284,-34.57575461007225],[-58.53176593780518,-34.580030094355685],[-58.53175520896912,-34.58000359409737]]]}},{"type":"Feature","properties":{"id":48,"kind":"zona","color_key":"obras","label":null},"geometry":{"type":"Polygon","coordinates":[[[-58.53499531745911,-34.572194483269875],[-58.52850437164307,-34.57741536149251],[-58.525500297546394,-34.57482704829633],[-58.53183031082154,-34.56960600752423],[-58.535006046295166,-34.572194483269875],[-58.53499531745911,-34.572194483269875]]]}},{"type":"Feature","properties":{"id":49,"kind":"zona","color_key":"obras","label":null},"geometry":{"type":"Polygon","coordinates":[[[-58.54157209396363,-34.56267061562594],[-58.53528499603272,-34.55755484129544],[-58.54384660720826,-34.55062728100644],[-58.54603528976441,-34.55318983864146],[-58.549704551696784,-34.556211787948854],[-58.54157209396363,-34.56266178036293],[-58.54157209396363,-34.56267061562594]]]}},{"type":"Feature","properties":{"id":50,"kind":"zona","color_key":"dic","label":null},"geometry":{"type":"Polygon","coordinates":[[[-58.522238731384284,-34.57259202360066],[-58.527002334594734,-34.57619630251844],[-58.53451251983643,-34.57022442202529],[-58.52863311767579,-34.56517095733939],[-58.52215290069581,-34.57273337081575],[-58.522238731384284,-34.57259202360066]]]}},{"type":"Feature","properties":{"id":51,"kind":"zona","color_key":"dic","label":null},"geometry":{"type":"Polygon","coordinates":[[[-58.535971641540534,-34.57128455046915],[-58.52936267852784,-34.57654965478566],[-58.533740043640144,-34.57990642641125],[-58.54039192199708,-34.5748182143249],[-58.53601455688477,-34.57124921307213],[-58.535971641540534,-34.57128455046915]]]}},{"type":"Feature","properties":{"id":52,"kind":"zona","color_key":"dic","label":null},"geometry":{"type":"Polygon","coordinates":[[[-58.54260206222535,-34.58548896742143],[-58.54408264160156,-34.58681388253496],[-58.54453325271607,-34.58649590483427],[-58.54612112045289,-34.58776780833634],[-58.55206489562989,-34.583033402223485],[-58.5488247871399,-34.58054243102244],[-58.54785919189454,-34.581355096498896],[-58.54699015617371,-34.58056893110896],[-58.541733026504524,-34.584897165179015],[-58.54260206222535,-34.58548896742143]]]}},{"type":"Feature","properties":{"id":53,"kind":"zona","color_key":"dic","label":null},"geometry":{"type":"Polygon","coordinates":[[[-58.57339382171631,-34.56656687513679],[-58.57126951217652,-34.564676196040224],[-58.56103420257569,-34.566990946789154],[-58.562707901000984,-34.56824547943194],[-58.56313705444337,-34.56790976128368],[-58.566312789917,-34.5719736267092],[-58.5692310333252,-34.5696236765738],[-58.56957435607911,-34.56994171882408],[-58.57174158096314,-34.568157132682224],[-58.57232093811036,-34.567379677237376],[-58.57339382171631,-34.56656687513679],[-58.57339382171631,-34.56656687513679]]]}},{"type":"Feature","properties":{"id":54,"kind":"zona","color_key":"dic","label":null},"geometry":{"type":"Polygon","coordinates":[[[-58.585410118103034,-34.55379070280208],[-58.59352111816407,-34.547852560647506],[-58.58777046203614,-34.5433986759368],[-58.58270645141602,-34.54771117114548],[-58.585367202758796,-34.55375535797158],[-58.585410118103034,-34.55379070280208]]]}},{"type":"Feature","properties":{"id":55,"kind":"zona","color_key":"dic","label":null},"geometry":{"type":"Polygon","coordinates":[[[-58.57425212860108,-34.564605515614346],[-58.585367202758796,-34.5552751721242],[-58.58304977416993,-34.55022079909489],[-58.570261001586914,-34.56114210116152],[-58.57412338256837,-34.5644994948629],[-58.57425212860108,-34.564605515614346]]]}},{"type":"Feature","properties":{"id":56,"kind":"zona","color_key":"dic","label":null},"geometry":{"type":"Polygon","coordinates":[[[-58.54412555694581,-34.5623790514511],[-58.5417652130127,-34.56418143179762],[-58.536701202392585,-34.56050594813525],[-58.53734493255616,-34.560011159084404],[-58.53652954101563,-34.5595517094732],[-58.53833198547363,-34.55813800244433],[-58.544211387634284,-34.5623790514511],[-58.54412555694581,-34.5623790514511]]]}},{"type":"Feature","properties":{"id":57,"kind":"zona","color_key":"dic","label":null},"geometry":{"type":"Polygon","coordinates":[[[-58.57004642486573,-34.53530330697314],[-58.560948371887214,-34.542762387234845],[-58.55575561523438,-34.538484986931515],[-58.56498241424561,-34.53116694124406],[-58.570175170898445,-34.53530330697314],[-58.57004642486573,-34.53530330697314]]]}},{"type":"Feature","properties":{"id":58,"kind":"zona","color_key":"dic","label":null},"geometry":{"type":"Polygon","coordinates":[[[-58.5378384590149,-34.581620094392775],[-58.54031682014466,-34.58358988558706],[-58.53689432144166,-34.58629275177736],[-58.535681962966926,-34.585294644761795],[-58.53615403175355,-34.58448201780722],[-58.53625059127808,-34.58380187826924],[-58.5349202156067,-34.58270657692392],[-58.53711962699891,-34.580957598073844],[-58.5378384590149,-34.581620094392775],[-58.5378384590149,-34.581620094392775]]]}},{"type":"Feature","properties":{"id":59,"kind":"zona","color_key":"dic","label":null},"geometry":{"type":"Polygon","coordinates":[[[-58.53165864944459,-34.587926794905194],[-58.529706001281745,-34.58958730311042],[-58.52692723274232,-34.58785613424549],[-58.528987169265754,-34.58614259485087],[-58.529695272445686,-34.58677855173942],[-58.53169083595276,-34.58790912974591],[-58.53165864944459,-34.587926794905194]]]}},{"type":"Feature","properties":{"id":60,"kind":"zona","color_key":"dic","label":null},"geometry":{"type":"Polygon","coordinates":[[[-58.58058214187623,-34.54338100131632],[-58.57635498046876,-34.54472426177595],[-58.57553958892823,-34.54544890644248],[-58.56950998306275,-34.54037626128043],[-58.57682704925538,-34.534172013684866],[-58.58051776885987,-34.54350472358088],[-58.58058214187623,-34.54338100131632]]]}},{"type":"Feature","properties":{"id":61,"kind":"zona","color_key":"oct","label":null},"geometry":{"type":"Polygon","coordinates":[[[-58.58781337738038,-34.54817068614875],[-58.58347892761231,-34.54438844869349],[-58.58176231384278,-34.541171644198855],[-58.58150482177735,-34.540111131952024],[-58.58704090118409,-34.538414284253506],[-58.59201908111573,-34.53477301515824],[-58.59094619750977,-34.534030600943005],[-58.59382152557373,-34.53180331857734],[-58.59553813934327,-34.53335888713917],[-58.599615097045906,-34.539828326404276],[-58.58777046203614,-34.548276727712235],[-58.58781337738038,-34.54817068614875]]]}},{"type":"Feature","properties":{"id":62,"kind":"zona","color_key":"oct","label":null},"geometry":{"type":"Polygon","coordinates":[[[-58.526701927185066,-34.59121244922064],[-58.52193832397462,-34.58820943694319],[-58.52567195892335,-34.587114193690574],[-58.53034973144532,-34.58230908496259],[-58.53343963623047,-34.58499432703037],[-58.52863311767579,-34.589057357288596],[-58.526701927185066,-34.59121244922064],[-58.526701927185066,-34.59121244922064]]]}},{"type":"Feature","properties":{"id":63,"kind":"zona","color_key":"oct","label":null},"geometry":{"type":"Polygon","coordinates":[[[-58.53953361511231,-34.586690224684844],[-58.52781772613526,-34.57683233551799],[-58.53541374206544,-34.57068381267721],[-58.54957580566407,-34.58262707868374],[-58.541722297668464,-34.58866872820438],[-58.537688255310066,-34.58510032164774],[-58.53953361511231,-34.586690224684844]]]}},{"type":"Feature","properties":{"id":64,"kind":"zona","color_key":"oct","label":null},"geometry":{"type":"Polygon","coordinates":[[[-58.53155136108399,-34.57103718837461],[-58.52790355682374,-34.567892091869915],[-58.52386951446534,-34.5722739914881],[-58.52734565734863,-34.57464153469921],[-58.53150844573975,-34.57107252586174],[-58.53155136108399,-34.57103718837461]]]}},{"type":"Feature","properties":{"id":65,"kind":"zona","color_key":"oct","label":null},"geometry":{"type":"Polygon","coordinates":[[[-58.514084815979004,-34.564464154582396],[-58.5197925567627,-34.56753870280607],[-58.51657390594483,-34.57153191182778],[-58.510737419128425,-34.568033447074946],[-58.513226509094245,-34.56548901662023],[-58.51412773132325,-34.564428814286856],[-58.514084815979004,-34.564464154582396]]]}},{"type":"Feature","properties":{"id":66,"kind":"zona","color_key":"oct","label":null},"geometry":{"type":"Polygon","coordinates":[[[-58.58794212341309,-34.56213166286486],[-58.58129024505616,-34.54523681597366],[-58.58081817626954,-34.544070308733914],[-58.56674194335938,-34.5564415222954],[-58.574895858764656,-34.56386336751592],[-58.58090400695801,-34.562485074905666],[-58.58807086944581,-34.56206098027649],[-58.58794212341309,-34.56213166286486]]]}},{"type":"Feature","properties":{"id":67,"kind":"zona","color_key":"oct","label":null},"geometry":{"type":"Polygon","coordinates":[[[-58.57811450958252,-34.539085957270096],[-58.571162223815925,-34.54209074388343],[-58.56811523437501,-34.545307512856645],[-58.560647964477546,-34.538520338248],[-58.57360839843751,-34.52816176034983],[-58.577384948730476,-34.53459625046936],[-58.578457832336426,-34.538803148239445],[-58.57811450958252,-34.539085957270096]]]}},{"type":"Feature","properties":{"id":68,"kind":"zona","color_key":"dic","label":null},"geometry":{"type":"Polygon","coordinates":[[[-58.55910301208497,-34.579941760128435],[-58.550176620483406,-34.58700820164194],[-58.55326652526856,-34.5893753251873],[-58.554425239562995,-34.58806811604437],[-58.5617208480835,-34.58209708847253],[-58.55897426605225,-34.57990642641125],[-58.55910301208497,-34.579941760128435]]]}},{"type":"Feature","properties":{"id":69,"kind":"zona","color_key":"dic","label":null},"geometry":{"type":"Polygon","coordinates":[[[-58.56935977935792,-34.519463802194394],[-58.57099056243897,-34.52278751944779],[-58.5668706893921,-34.52614646065048],[-58.56348037719727,-34.52890422689311],[-58.560948371887214,-34.52660609469933],[-58.56935977935792,-34.51928700500882],[-58.56935977935792,-34.519463802194394]]]}},{"type":"Feature","properties":{"id":70,"kind":"zona","color_key":"oct","label":null},"geometry":{"type":"Polygon","coordinates":[[[-58.55026245117188,-34.555982052967884],[-58.535242080688484,-34.54148979523816],[-58.52786064147949,-34.54742839142074],[-58.53232383728028,-34.55541654877343],[-58.542709350585945,-34.56382802696509],[-58.55154991149903,-34.55668892780525],[-58.55009078979493,-34.555982052967884],[-58.55026245117188,-34.555982052967884]]]}}]}